JINJUSAT-1B             
1 63210U 25052A   26068.66363707  .00019955  00000+0  68430-3 0  9998
2 63210  97.4113 325.4613 0005550  82.1930 277.9941 15.30194857 54866
STARLINK-35700          
1 66217U 25244M   26068.72490681  .00033735  00000+0  11458-2 0  9999
2 66217  53.1589 229.8376 0000813  69.3537 290.7551 15.30203743 21658
