[{"OBJECT_NAME":"JINJUSAT-1B","OBJECT_ID":"2025-052A","EPOCH":"2026-03-09T15:55:38.242848","MEAN_MOTION":15.30194857,"ECCENTRICITY":0.00055504,"INCLINATION":97.4113,"RA_OF_ASC_NODE":325.4613,"ARG_OF_PERICENTER":82.193,"MEAN_ANOMALY":277.9941,"EPHEMERIS_TYPE":0,"CLASSIFICATION_TYPE":"U","NORAD_CAT_ID":63210,"ELEMENT_SET_NO":999,"REV_AT_EPOCH":5486,"BSTAR":0.00068430401,"MEAN_MOTION_DOT":0.00019955,"MEAN_MOTION_DDOT":0},{"OBJECT_NAME":"STARLINK-35700","OBJECT_ID":"2025-244M","EPOCH":"2026-03-09T17:23:51.948384","MEAN_MOTION":15.30203743,"ECCENTRICITY":8.133e-5,"INCLINATION":53.1589,"RA_OF_ASC_NODE":229.8376,"ARG_OF_PERICENTER":69.3537,"MEAN_ANOMALY":290.7551,"EPHEMERIS_TYPE":0,"CLASSIFICATION_TYPE":"U","NORAD_CAT_ID":66217,"ELEMENT_SET_NO":999,"REV_AT_EPOCH":2165,"BSTAR":0.0011458155,"MEAN_MOTION_DOT":0.00033735,"MEAN_MOTION_DDOT":0}]
